CCSDS_OMM_VERS = 2.0
CREATION_DATE  = 
ORIGINATOR     = 

OBJECT_NAME    = STARLINK-36228
OBJECT_ID      = 2025-298X
CENTER_NAME    = EARTH
REF_FRAME      = TEME
TIME_SYSTEM    = UTC
MEAN_ELEMENT_THEORY = SGP/SGP4

EPOCH          = 2026-01-01T20:00:03.000384
MEAN_MOTION    = 15.52553363
ECCENTRICITY   = .0003574
INCLINATION    = 69.9992
RA_OF_ASC_NODE = 193.1463
ARG_OF_PERICENTER = 277.2473
MEAN_ANOMALY   = 329.3476

EPHEMERIS_TYPE = 0
CLASSIFICATION_TYPE = U
NORAD_CAT_ID   = 67096
ELEMENT_SET_NO = 999
REV_AT_EPOCH   = 414
BSTAR          = -.14731E-2
MEAN_MOTION_DOT = -.89894E-3
MEAN_MOTION_DDOT = 0

CCSDS_OMM_VERS = 2.0
CREATION_DATE  = 
ORIGINATOR     = 

OBJECT_NAME    = STARLINK-36222
OBJECT_ID      = 2025-298Y
CENTER_NAME    = EARTH
REF_FRAME      = TEME
TIME_SYSTEM    = UTC
MEAN_ELEMENT_THEORY = SGP/SGP4

EPOCH          = 2026-01-01T20:00:03.000384
MEAN_MOTION    = 15.52561827
ECCENTRICITY   = .0003432
INCLINATION    = 69.9993
RA_OF_ASC_NODE = 193.1437
ARG_OF_PERICENTER = 277.4326
MEAN_ANOMALY   = 331.0786

EPHEMERIS_TYPE = 0
CLASSIFICATION_TYPE = U
NORAD_CAT_ID   = 67097
ELEMENT_SET_NO = 999
REV_AT_EPOCH   = 414
BSTAR          = -.1716E-2
MEAN_MOTION_DOT = -.104526E-2
MEAN_MOTION_DDOT = 0

CCSDS_OMM_VERS = 2.0
CREATION_DATE  = 
ORIGINATOR     = 

OBJECT_NAME    = STARLINK-36205
OBJECT_ID      = 2025-298Z
CENTER_NAME    = EARTH
REF_FRAME      = TEME
TIME_SYSTEM    = UTC
MEAN_ELEMENT_THEORY = SGP/SGP4

EPOCH          = 2026-01-01T20:00:03.000384
MEAN_MOTION    = 15.52527250
ECCENTRICITY   = .0003111
INCLINATION    = 69.9993
RA_OF_ASC_NODE = 193.1428
ARG_OF_PERICENTER = 277.5034
MEAN_ANOMALY   = 332.9250

EPHEMERIS_TYPE = 0
CLASSIFICATION_TYPE = U
NORAD_CAT_ID   = 67098
ELEMENT_SET_NO = 999
REV_AT_EPOCH   = 420
BSTAR          = -.36629E-3
MEAN_MOTION_DOT = -.22644E-3
MEAN_MOTION_DDOT = 0

CCSDS_OMM_VERS = 2.0
CREATION_DATE  = 
ORIGINATOR     = 

OBJECT_NAME    = STARLINK-36193
OBJECT_ID      = 2025-298AA
CENTER_NAME    = EARTH
REF_FRAME      = TEME
TIME_SYSTEM    = UTC
MEAN_ELEMENT_THEORY = SGP/SGP4

EPOCH          = 2026-01-01T20:00:03.000384
MEAN_MOTION    = 15.44526080
ECCENTRICITY   = .0003147
INCLINATION    = 69.9992
RA_OF_ASC_NODE = 193.3396
ARG_OF_PERICENTER = 283.5790
MEAN_ANOMALY   = 155.0076

EPHEMERIS_TYPE = 0
CLASSIFICATION_TYPE = U
NORAD_CAT_ID   = 67099
ELEMENT_SET_NO = 999
REV_AT_EPOCH   = 414
BSTAR          = -.45887E-1
MEAN_MOTION_DOT = -.1916041E-1
MEAN_MOTION_DDOT = 0

CCSDS_OMM_VERS = 2.0
CREATION_DATE  = 
ORIGINATOR     = 

OBJECT_NAME    = STARLINK-36215
OBJECT_ID      = 2025-298AB
CENTER_NAME    = EARTH
REF_FRAME      = TEME
TIME_SYSTEM    = UTC
MEAN_ELEMENT_THEORY = SGP/SGP4

EPOCH          = 2026-01-01T20:00:03.000384
MEAN_MOTION    = 15.52559470
ECCENTRICITY   = .0003449
INCLINATION    = 69.9991
RA_OF_ASC_NODE = 193.1342
ARG_OF_PERICENTER = 276.6539
MEAN_ANOMALY   = 339.5237

EPHEMERIS_TYPE = 0
CLASSIFICATION_TYPE = U
NORAD_CAT_ID   = 67100
ELEMENT_SET_NO = 999
REV_AT_EPOCH   = 420
BSTAR          = -.16521E-2
MEAN_MOTION_DOT = -.100679E-2
MEAN_MOTION_DDOT = 0

CCSDS_OMM_VERS = 2.0
CREATION_DATE  = 
ORIGINATOR     = 

OBJECT_NAME    = STARLINK-36200
OBJECT_ID      = 2025-298AC
CENTER_NAME    = EARTH
REF_FRAME      = TEME
TIME_SYSTEM    = UTC
MEAN_ELEMENT_THEORY = SGP/SGP4

EPOCH          = 2026-01-01T20:00:03.000384
MEAN_MOTION    = 15.52487882
ECCENTRICITY   = .0003073
INCLINATION    = 69.9992
RA_OF_ASC_NODE = 193.1401
ARG_OF_PERICENTER = 276.6584
MEAN_ANOMALY   = 335.6966

EPHEMERIS_TYPE = 0
CLASSIFICATION_TYPE = U
NORAD_CAT_ID   = 67101
ELEMENT_SET_NO = 999
REV_AT_EPOCH   = 420
BSTAR          = .31483E-3
MEAN_MOTION_DOT = .19226E-3
MEAN_MOTION_DDOT = 0

CCSDS_OMM_VERS = 2.0
CREATION_DATE  = 
ORIGINATOR     = 

OBJECT_NAME    = STARLINK-36255
OBJECT_ID      = 2025-299A
CENTER_NAME    = EARTH
REF_FRAME      = TEME
TIME_SYSTEM    = UTC
MEAN_ELEMENT_THEORY = SGP/SGP4

EPOCH          = 2026-01-01T20:00:03.000384
MEAN_MOTION    = 15.52523864
ECCENTRICITY   = .0001625
INCLINATION    = 42.9991
RA_OF_ASC_NODE = 194.4556
ARG_OF_PERICENTER = 264.3368
MEAN_ANOMALY   = 337.5368

EPHEMERIS_TYPE = 0
CLASSIFICATION_TYPE = U
NORAD_CAT_ID   = 67102
ELEMENT_SET_NO = 999
REV_AT_EPOCH   = 403
BSTAR          = -.36185E-1
MEAN_MOTION_DOT = -.2031085E-1
MEAN_MOTION_DDOT = 0

CCSDS_OMM_VERS = 2.0
CREATION_DATE  = 
ORIGINATOR     = 

OBJECT_NAME    = STARLINK-36256
OBJECT_ID      = 2025-299B
CENTER_NAME    = EARTH
REF_FRAME      = TEME
TIME_SYSTEM    = UTC
MEAN_ELEMENT_THEORY = SGP/SGP4

EPOCH          = 2026-01-01T20:00:03.000384
MEAN_MOTION    = 15.52558432
ECCENTRICITY   = .0001702
INCLINATION    = 42.9991
RA_OF_ASC_NODE = 194.4518
ARG_OF_PERICENTER = 267.3901
MEAN_ANOMALY   = 336.3651

EPHEMERIS_TYPE = 0
CLASSIFICATION_TYPE = U
NORAD_CAT_ID   = 67103
ELEMENT_SET_NO = 999
REV_AT_EPOCH   = 403
BSTAR          = -.36617E-1
MEAN_MOTION_DOT = -.2055097E-1
MEAN_MOTION_DDOT = 0

CCSDS_OMM_VERS = 2.0
CREATION_DATE  = 
ORIGINATOR     = 

OBJECT_NAME    = STARLINK-36258
OBJECT_ID      = 2025-299C
CENTER_NAME    = EARTH
REF_FRAME      = TEME
TIME_SYSTEM    = UTC
MEAN_ELEMENT_THEORY = SGP/SGP4

EPOCH          = 2026-01-01T20:00:03.000384
MEAN_MOTION    = 15.52581163
ECCENTRICITY   = .0001723
INCLINATION    = 42.9992
RA_OF_ASC_NODE = 194.4465
ARG_OF_PERICENTER = 261.1261
MEAN_ANOMALY   = 344.5176

EPHEMERIS_TYPE = 0
CLASSIFICATION_TYPE = U
NORAD_CAT_ID   = 67104
ELEMENT_SET_NO = 999
REV_AT_EPOCH   = 403
BSTAR          = -.36808E-1
MEAN_MOTION_DOT = -.2066184E-1
MEAN_MOTION_DDOT = 0

CCSDS_OMM_VERS = 2.0
CREATION_DATE  = 
ORIGINATOR     = 

OBJECT_NAME    = STARLINK-36261
OBJECT_ID      = 2025-299D
CENTER_NAME    = EARTH
REF_FRAME      = TEME
TIME_SYSTEM    = UTC
MEAN_ELEMENT_THEORY = SGP/SGP4

EPOCH          = 2026-01-01T20:00:03.000384
MEAN_MOTION    = 15.52623928
ECCENTRICITY   = .0001813
INCLINATION    = 42.9991
RA_OF_ASC_NODE = 194.4425
ARG_OF_PERICENTER = 268.9397
MEAN_ANOMALY   = 338.5765

EPHEMERIS_TYPE = 0
CLASSIFICATION_TYPE = U
NORAD_CAT_ID   = 67105
ELEMENT_SET_NO = 999
REV_AT_EPOCH   = 403
BSTAR          = -.37239E-1
MEAN_MOTION_DOT = -.2090634E-1
MEAN_MOTION_DDOT = 0

CCSDS_OMM_VERS = 2.0
CREATION_DATE  = 
ORIGINATOR     = 

OBJECT_NAME    = STARLINK-36259
OBJECT_ID      = 2025-299E
CENTER_NAME    = EARTH
REF_FRAME      = TEME
TIME_SYSTEM    = UTC
MEAN_ELEMENT_THEORY = SGP/SGP4

EPOCH          = 2026-01-01T20:00:03.000384
MEAN_MOTION    = 15.52629358
ECCENTRICITY   = .0001496
INCLINATION    = 42.9994
RA_OF_ASC_NODE = 194.4333
ARG_OF_PERICENTER = 264.4919
MEAN_ANOMALY   = 346.8322

EPHEMERIS_TYPE = 0
CLASSIFICATION_TYPE = U
NORAD_CAT_ID   = 67106
ELEMENT_SET_NO = 999
REV_AT_EPOCH   = 403
BSTAR          = -.36912E-1
MEAN_MOTION_DOT = -.2074478E-1
MEAN_MOTION_DDOT = 0

CCSDS_OMM_VERS = 2.0
CREATION_DATE  = 
ORIGINATOR     = 

OBJECT_NAME    = STARLINK-36196
OBJECT_ID      = 2025-299F
CENTER_NAME    = EARTH
REF_FRAME      = TEME
TIME_SYSTEM    = UTC
MEAN_ELEMENT_THEORY = SGP/SGP4

EPOCH          = 2026-01-01T20:00:03.000384
MEAN_MOTION    = 15.52657109
ECCENTRICITY   = .0001799
INCLINATION    = 42.9995
RA_OF_ASC_NODE = 194.4381
ARG_OF_PERICENTER = 264.7231
MEAN_ANOMALY   = 344.6844

EPHEMERIS_TYPE = 0
CLASSIFICATION_TYPE = U
NORAD_CAT_ID   = 67107
ELEMENT_SET_NO = 999
REV_AT_EPOCH   = 403
BSTAR          = -.37801E-1
MEAN_MOTION_DOT = -.2120946E-1
MEAN_MOTION_DDOT = 0

