STARLINK-36228          
1 67096U 25298X   26001.83336806 -.00089894  00000+0 -14731-2 0  9997
2 67096  69.9992 193.1463 0003574 277.2473 329.3476 15.52553363  4143
STARLINK-36222          
1 67097U 25298Y   26001.83336806 -.00104526  00000+0 -17160-2 0  9997
2 67097  69.9993 193.1437 0003432 277.4326 331.0786 15.52561827  4146
STARLINK-36205          
1 67098U 25298Z   26001.83336806 -.00022644  00000+0 -36629-3 0  9990
2 67098  69.9993 193.1428 0003111 277.5034 332.9250 15.52527250  4203
STARLINK-36193          
1 67099U 25298AA  26001.83336806 -.01916041  00000+0 -45887-1 0  9999
2 67099  69.9992 193.3396 0003147 283.5790 155.0076 15.44526080  4148
STARLINK-36215          
1 67100U 25298AB  26001.83336806 -.00100679  00000+0 -16521-2 0  9997
2 67100  69.9991 193.1342 0003449 276.6539 339.5237 15.52559470  4201
STARLINK-36200          
1 67101U 25298AC  26001.83336806  .00019226  00000+0  31483-3 0  9998
2 67101  69.9992 193.1401 0003073 276.6584 335.6966 15.52487882  4205
STARLINK-36255          
1 67102U 25299A   26001.83336806 -.02031085  00000+0 -36185-1 0  9993
2 67102  42.9991 194.4556 0001625 264.3368 337.5368 15.52523864  4035
STARLINK-36256          
1 67103U 25299B   26001.83336806 -.02055097  00000+0 -36617-1 0  9993
2 67103  42.9991 194.4518 0001702 267.3901 336.3651 15.52558432  4037
STARLINK-36258          
1 67104U 25299C   26001.83336806 -.02066184  00000+0 -36808-1 0  9995
2 67104  42.9992 194.4465 0001723 261.1261 344.5176 15.52581163  4034
STARLINK-36261          
1 67105U 25299D   26001.83336806 -.02090634  00000+0 -37239-1 0  9992
2 67105  42.9991 194.4425 0001813 268.9397 338.5765 15.52623928  4038
STARLINK-36259          
1 67106U 25299E   26001.83336806 -.02074478  00000+0 -36912-1 0  9998
2 67106  42.9994 194.4333 0001496 264.4919 346.8322 15.52629358  4032
STARLINK-36196          
1 67107U 25299F   26001.83336806 -.02120946  00000+0 -37801-1 0  9999
2 67107  42.9995 194.4381 0001799 264.7231 344.6844 15.52657109  4033
